{
  "type": "FeatureCollection",
  "features": [
    {
      "type": "Feature",
      "properties": {
        "norad_id": 34010,
        "name": "COSMOS 2251 DEB",
        "group": "cosmos-2251-debris",
        "lat": 67.10677232730583,
        "lon": 36.17352975961694,
        "alt_km": 495.23005426477266,
        "timestamp": "2025-12-24T07:45:06.592179+00:00",
        "meta_object_name": "COSMOS 2251 DEB",
        "meta_object_id": "1993-036GV",
        "meta_epoch": "2025-12-23T10:45:24.813504",
        "meta_mean_motion": 15.20424475,
        "meta_eccentricity": 0.00045593,
        "meta_inclination": 73.9976,
        "meta_ra_of_asc_node": 260.8265,
        "meta_arg_of_pericenter": 58.0003,
        "meta_mean_anomaly": 302.1637,
        "meta_ephemeris_type": 0,
        "meta_classification_type": "U",
        "meta_norad_cat_id": 34010,
        "meta_element_set_no": 999,
        "meta_rev_at_epoch": 89448,
        "meta_bstar": 0.0038976407,
        "meta_mean_motion_dot": 0.00086025,
        "meta_mean_motion_ddot": 0,
        "tle_line1": "1 34010U 93036GV  25357.44820386  .00086025  00000+0  38976-2 0  9991",
        "tle_line2": "2 34010  73.9976 260.8265 0004559  58.0003 302.1637 15.20424475894488"
      },
      "geometry": {
        "type": "Point",
        "coordinates": [
          36.17352975961694,
          67.10677232730583
        ]
      }
    },
    {
      "type": "Feature",
      "properties": {
        "norad_id": 34011,
        "name": "COSMOS 2251 DEB",
        "group": "cosmos-2251-debris",
        "lat": -53.394349111805774,
        "lon": 151.35483168230303,
        "alt_km": 781.9251442837995,
        "timestamp": "2025-12-24T07:45:06.592189+00:00",
        "meta_object_name": "COSMOS 2251 DEB",
        "meta_object_id": "1993-036GW",
        "meta_epoch": "2025-12-21T22:02:24.533664",
        "meta_mean_motion": 14.41810013,
        "meta_eccentricity": 0.00360808,
        "meta_inclination": 74.015,
        "meta_ra_of_asc_node": 313.1159,
        "meta_arg_of_pericenter": 34.0795,
        "meta_mean_anomaly": 326.2666,
        "meta_ephemeris_type": 0,
        "meta_classification_type": "U",
        "meta_norad_cat_id": 34011,
        "meta_element_set_no": 999,
        "meta_rev_at_epoch": 88048,
        "meta_bstar": 0.00069958791,
        "meta_mean_motion_dot": 2.278e-05,
        "meta_mean_motion_ddot": 0,
        "tle_line1": "1 34011U 93036GW  25355.91833951  .00002278  00000+0  69959-3 0  9998",
        "tle_line2": "2 34011  74.0150 313.1159 0036080  34.0795 326.2666 14.41810013880488"
      },
      "geometry": {
        "type": "Point",
        "coordinates": [
          151.35483168230303,
          -53.394349111805774
        ]
      }
    },
    {
      "type": "Feature",
      "properties": {
        "norad_id": 34014,
        "name": "COSMOS 2251 DEB",
        "group": "cosmos-2251-debris",
        "lat": 40.39428130790643,
        "lon": -87.75677571800672,
        "alt_km": 621.0447214440155,
        "timestamp": "2025-12-24T07:45:06.592200+00:00",
        "meta_object_name": "COSMOS 2251 DEB",
        "meta_object_id": "1993-036GZ",
        "meta_epoch": "2025-12-23T04:24:15.434208",
        "meta_mean_motion": 14.73254198,
        "meta_eccentricity": 0.00374882,
        "meta_inclination": 74.017,
        "meta_ra_of_asc_node": 260.3499,
        "meta_arg_of_pericenter": 37.0908,
        "meta_mean_anomaly": 84.3191,
        "meta_ephemeris_type": 0,
        "meta_classification_type": "U",
        "meta_norad_cat_id": 34014,
        "meta_element_set_no": 999,
        "meta_rev_at_epoch": 89457,
        "meta_bstar": 0.00092045815,
        "meta_mean_motion_dot": 5.986e-05,
        "meta_mean_motion_ddot": 0,
        "tle_line1": "1 34014U 93036GZ  25357.18351197  .00005986  00000+0  92046-3 0  9991",
        "tle_line2": "2 34014  74.0170 260.3499 0037488  37.0908  84.3191 14.73254198894576"
      },
      "geometry": {
        "type": "Point",
        "coordinates": [
          -87.75677571800672,
          40.39428130790643
        ]
      }
    },
    {
      "type": "Feature",
      "properties": {
        "norad_id": 34015,
        "name": "COSMOS 2251 DEB",
        "group": "cosmos-2251-debris",
        "lat": -17.191236085454634,
        "lon": 132.21056162490243,
        "alt_km": 701.1366403131688,
        "timestamp": "2025-12-24T07:45:06.592210+00:00",
        "meta_object_name": "COSMOS 2251 DEB",
        "meta_object_id": "1993-036HA",
        "meta_epoch": "2025-12-23T10:44:27.072384",
        "meta_mean_motion": 14.6037638,
        "meta_eccentricity": 0.00209622,
        "meta_inclination": 74.0244,
        "meta_ra_of_asc_node": 138.9674,
        "meta_arg_of_pericenter": 235.7756,
        "meta_mean_anomaly": 185.4899,
        "meta_ephemeris_type": 0,
        "meta_classification_type": "U",
        "meta_norad_cat_id": 34015,
        "meta_element_set_no": 999,
        "meta_rev_at_epoch": 88687,
        "meta_bstar": 0.0012018197,
        "meta_mean_motion_dot": 5.808e-05,
        "meta_mean_motion_ddot": 0,
        "tle_line1": "1 34015U 93036HA  25357.44753556  .00005808  00000+0  12018-2 0  9999",
        "tle_line2": "2 34015  74.0244 138.9674 0020962 235.7756 185.4899 14.60376380886877"
      },
      "geometry": {
        "type": "Point",
        "coordinates": [
          132.21056162490243,
          -17.191236085454634
        ]
      }
    },
    {
      "type": "Feature",
      "properties": {
        "norad_id": 34018,
        "name": "COSMOS 2251 DEB",
        "group": "cosmos-2251-debris",
        "lat": 57.07159757193311,
        "lon": 98.99256920568713,
        "alt_km": 815.5404975435595,
        "timestamp": "2025-12-24T07:45:06.592220+00:00",
        "meta_object_name": "COSMOS 2251 DEB",
        "meta_object_id": "1993-036HD",
        "meta_epoch": "2025-12-23T23:37:00.998112",
        "meta_mean_motion": 13.81084077,
        "meta_eccentricity": 0.02631627,
        "meta_inclination": 73.878,
        "meta_ra_of_asc_node": 73.0414,
        "meta_arg_of_pericenter": 106.7681,
        "meta_mean_anomaly": 71.6819,
        "meta_ephemeris_type": 0,
        "meta_classification_type": "U",
        "meta_norad_cat_id": 34018,
        "meta_element_set_no": 999,
        "meta_rev_at_epoch": 84812,
        "meta_bstar": 0.00035007625,
        "meta_mean_motion_dot": 4.6e-06,
        "meta_mean_motion_ddot": 0,
        "tle_line1": "1 34018U 93036HD  25357.98403933  .00000460  00000+0  35008-3 0  9996",
        "tle_line2": "2 34018  73.8780  73.0414 0263162 106.7681  71.6819 13.81084077848123"
      },
      "geometry": {
        "type": "Point",
        "coordinates": [
          98.99256920568713,
          57.07159757193311
        ]
      }
    },
    {
      "type": "Feature",
      "properties": {
        "norad_id": 34019,
        "name": "COSMOS 2251 DEB",
        "group": "cosmos-2251-debris",
        "lat": -48.95611139274651,
        "lon": -131.25878589048867,
        "alt_km": 743.8147392394594,
        "timestamp": "2025-12-24T07:45:06.592230+00:00",
        "meta_object_name": "COSMOS 2251 DEB",
        "meta_object_id": "1993-036HE",
        "meta_epoch": "2025-12-23T19:29:39.156000",
        "meta_mean_motion": 14.33983432,
        "meta_eccentricity": 0.00622458,
        "meta_inclination": 73.9533,
        "meta_ra_of_asc_node": 30.3762,
        "meta_arg_of_pericenter": 209.9239,
        "meta_mean_anomaly": 265.895,
        "meta_ephemeris_type": 0,
        "meta_classification_type": "U",
        "meta_norad_cat_id": 34019,
        "meta_element_set_no": 999,
        "meta_rev_at_epoch": 87679,
        "meta_bstar": 0.00065072511,
        "meta_mean_motion_dot": 1.83e-05,
        "meta_mean_motion_ddot": 0,
        "tle_line1": "1 34019U 93036HE  25357.81225875  .00001830  00000+0  65073-3 0  9993",
        "tle_line2": "2 34019  73.9533  30.3762 0062245 209.9239 265.8950 14.33983432876795"
      },
      "geometry": {
        "type": "Point",
        "coordinates": [
          -131.25878589048867,
          -48.95611139274651
        ]
      }
    },
    {
      "type": "Feature",
      "properties": {
        "norad_id": 34021,
        "name": "COSMOS 2251 DEB",
        "group": "cosmos-2251-debris",
        "lat": -72.4979866411826,
        "lon": 42.88216806569271,
        "alt_km": 719.2691211321608,
        "timestamp": "2025-12-24T07:45:06.592240+00:00",
        "meta_object_name": "COSMOS 2251 DEB",
        "meta_object_id": "1993-036HG",
        "meta_epoch": "2025-12-23T17:58:42.612384",
        "meta_mean_motion": 14.49985272,
        "meta_eccentricity": 0.00209835,
        "meta_inclination": 74.0361,
        "meta_ra_of_asc_node": 109.1571,
        "meta_arg_of_pericenter": 252.1914,
        "meta_mean_anomaly": 270.516,
        "meta_ephemeris_type": 0,
        "meta_classification_type": "U",
        "meta_norad_cat_id": 34021,
        "meta_element_set_no": 999,
        "meta_rev_at_epoch": 88789,
        "meta_bstar": 0.00043068209,
        "meta_mean_motion_dot": 1.644e-05,
        "meta_mean_motion_ddot": 0,
        "tle_line1": "1 34021U 93036HG  25357.74910431  .00001644  00000+0  43068-3 0  9990",
        "tle_line2": "2 34021  74.0361 109.1571 0020983 252.1914 270.5160 14.49985272887895"
      },
      "geometry": {
        "type": "Point",
        "coordinates": [
          42.88216806569271,
          -72.4979866411826
        ]
      }
    }
  ]
}